#aV2019  2 19  0  0  0.00000000     288 DD+AD WGS84 FIT  NGA
## 2041 172800.00000000   300.00000000 58533 0.0000000000000
+   31     1  2  3  5  6  7  8  9 10 11 12 13 14 15 16 17 18
+         19 20 21 22 23 24 25 26 27 28 29 30 31 32  0  0  0
+          0  0  0  0  0  0  0  0  0  0  0  0  0  0  0  0  0
+          0  0  0  0  0  0  0  0  0  0  0  0  0  0  0  0  0
+          0  0  0  0  0  0  0  0  0  0  0  0  0  0  0  0  0
++         2  2  2  2  2  2  2  2  2  2  2  2  2  2  2  2  2
++         2  2  2  2  2  2  2  2  2  2  2  2  2  2  0  0  0
++         0  0  0  0  0  0  0  0  0  0  0  0  0  0  0  0  0
++         0  0  0  0  0  0  0  0  0  0  0  0  0  0  0  0  0
++         0  0  0  0  0  0  0  0  0  0  0  0  0  0  0  0  0
%c cc cc ccc ccc cccc cccc cccc cccc ccccc ccccc ccccc ccccc
%c cc cc ccc ccc cccc cccc cccc cccc ccccc ccccc ccccc ccccc
%f  0.0000000  0.000000000  0.00000000000  0.000000000000000
%f  0.0000000  0.000000000  0.00000000000  0.000000000000000
%i    0    0    0    0      0      0      0      0         0
%i    0    0    0    0      0      0      0      0         0
/*      NGA, ST. LOUIS,MO.                                  
/*   EPHEMERIS COMPUTED FROM 2 DAYS OF DATA                 
/*   EPOCHA v3 SMOOTHER                                     
/*   G1762 IERS2010 SATAF SATAPC                            
*  2019  2 19 13 10  0.00000000
P  1 -13295.152909  11503.474732  19637.069675   -166.145705                    
V  1  -1341.376378 -25366.496866  14135.793867     -0.070655                    
P  2  13780.317871  13033.987166 -18063.011123   -143.893108                    
V  2      9.581209  24196.229161  16731.562727     -0.098406                    
P  3 -23203.253266  12791.502580   1068.414431    183.634116                    
V  3   -220.867277  -3142.188831  31812.245843      0.016536                    
P  5  20023.870399   2288.873101 -17518.536628      1.107497                    
V  5 -17735.007428  13079.162712 -18488.456123      0.000593                    
P  6   7800.872098  22811.303086 -11073.882273    272.357657                    
V  6  -1940.235077  14140.140889  27678.328944     -0.083032                    
P  7  -7003.269292  23353.636229  -9702.106220     29.590212                    
V  7  -3001.407930 -12853.401414 -28522.148983     -0.072579                    
P  8 -23664.230983  -3802.349006  11701.911338   -133.337679                    
V  8 -11948.743062  -8791.134834 -26936.699262     -0.014167                    
P  9  -6661.979576  13919.352300 -21664.796043    456.392070                    
V  9 -24114.116595 -13067.232806   -992.145066     -0.053280                    
P 10    452.087832 -16865.594722  20519.983655    113.613930                    
V 10  22865.320732 -12371.517381 -10888.485400     -0.077261                    
P 11 -14695.250846   6538.407000  20601.150881   -657.756204                    
V 11 -11798.016593 -24983.242895   -707.329456      0.061009                    
P 12  24232.601350 -10240.565594   2632.561703    266.648147                    
V 12  -2217.570949   3611.440527  32158.035014     -0.031980                    
P 13  22952.901978  12081.013369   5687.338560    -74.418186                    
V 13   4439.152011   6378.257995 -30790.576332      0.012783                    
P 14 -16596.881548 -18882.098917   9153.993656    -91.106793                    
V 14  10562.504391   4260.136757  28731.893076      0.009314                    
P 15  23391.484171    112.459710  12679.406097   -327.144437                    
V 15  13814.920273   9368.614950 -24668.841171      0.017325                    
P 16 -20539.764097  -2697.889534 -17046.836754    -20.243459                    
V 16  18568.766020 -10034.412618 -20577.926277     -0.025084                    
P 17   8919.155344  18933.050333  16819.557259     12.056348                    
V 17 -17931.715978  -9991.611874  21187.332014      0.055781                    
P 18 -15161.226857    483.787966  21324.261831     27.511405                    
V 18  -1619.379055 -28206.663569   -361.947642      0.037239                    
P 19  16466.239309  18714.986826   8727.539338   -350.782878                    
V 19 -10629.406400  -4876.104331  29622.366596      0.041518                    
P 20   9196.242499 -20309.403692  14222.610388    522.360215                    
V 20  16405.240157  -8799.094139 -23132.153635      0.003721                    
P 21   2786.342526 -25533.343706  -6179.332371   -247.208638                    
V 21   3747.363079   8654.864637 -30043.404881      0.072312                    
P 22 -23706.800091   8117.677793   8956.399420   -648.528531                    
V 22   7188.713833  -9189.446373  28150.691031     -0.080228                    
P 23 -17468.678098   6113.602408 -18879.653147   -196.713049                    
V 23 -20917.475173 -12955.382748  14507.233778      0.012780                    
P 24  14768.370095  -7087.356683  20701.649285    -62.365100                    
V 24   2559.112075  26673.166504   7577.592345     -0.005126                    
P 25  18532.879393 -17158.598109  -7980.200300   -722.630960                    
V 25   9810.090028  -2874.990927  29961.125241     -0.053776                    
P 26 -12998.641041  -9591.160198 -21121.532354    128.667321                    
V 26  22432.018635 -14656.091080  -6981.604294      0.102742                    
P 27 -23868.332881 -11827.994358   2012.809313    -70.696174                    
V 27  -1319.952233  -3042.534268 -31812.660617     -0.074395                    
P 28  -3243.311637  16912.158147  20860.700322    764.915226                    
V 28 -22869.084180  10182.229090 -12085.500189      0.008195                    
P 29  11467.114726  -9834.589976 -21865.790617    266.989385                    
V 29  22981.898334  15364.649274   5151.143320     -0.087120                    
P 30    -32.100693  26433.718699   1263.926414    -55.328672                    
V 30  -3641.316223   1470.363117 -31375.907092     -0.064371                    
P 31  -8304.939419 -21671.237792 -12491.131503     57.554894                    
V 31   2963.014285 -15985.690448  26190.913208     -0.026906                    
P 32 -12331.609255 -18575.577538  14558.970428   -219.103880                    
V 32  17092.671193   7075.965322  23467.463035      0.189203                    
EOF
